NORAD_CAT_ID,OBJECT_NAME,OBJECT_TYPE,EPOCH,MEAN_MOTION,ECCENTRICITY,INCLINATION,RA_OF_ASC_NODE,ARG_OF_PERICENTER,MEAN_ANOMALY,BSTAR,MEAN_MOTION_DOT,MEAN_MOTION_DDOT,TLE_LINE0,TLE_LINE1,TLE_LINE2,SEMIMAJOR_AXIS,PERIOD,APOGEE,PERIGEE,DECAYED
50191.0,STARLINK-3273,PAYLOAD,2024-06-04 14:06:42,15.08841001,0.0001328,53.2156,266.1149,93.4439,266.6706,4.5973e-05,4.44e-06,0.0,0 STARLINK-3273,1 50191U 21125AM  24156.58799295  .00000444  00000-0  45973-4 0  9993,2 50191  53.2156 266.1149 0001328  93.4439 266.6706 15.08841001139368,6917.877,95.437,540.661,538.824,0.0
50191.0,STARLINK-3273,PAYLOAD,2024-06-05 12:22:07,15.08828819,0.0001662,53.2172,261.9523,118.7631,241.3528,-5.337e-05,-1.137e-05,0.0,0 STARLINK-3273,1 50191U 21125AM  24157.51536421 -.00001137  00000-0 -53370-4 0  9999,2 50191  53.2172 261.9523 0001662 118.7631 241.3528 15.08828819136429,6917.915,95.438,540.929,538.63,0.0
50191.0,STARLINK-3273,PAYLOAD,2024-06-05 13:57:30,15.08825386,0.0001083,53.2162,261.6571,90.7109,269.4008,-2.9004e-05,-7.49e-06,0.0,0 STARLINK-3273,1 50191U 21125AM  24157.58160660 -.00000749  00000-0 -29004-4 0  9999,2 50191  53.2162 261.6571 0001083  90.7109 269.4008 15.08825386139517,6917.925,95.438,540.539,539.041,0.0
50191.0,STARLINK-3273,PAYLOAD,2024-06-06 13:48:16,15.08842365,0.0001139,53.2175,257.199,99.2901,260.822,0.00017762,2.54e-05,0.0,0 STARLINK-3273,1 50191U 21125AM  24158.57519481  .00002540  00000-0  17762-3 0  9994,2 50191  53.2175 257.1990 0001139  99.2901 260.8220 15.08842365136583,6917.873,95.437,540.526,538.95,0.0
50191.0,STARLINK-3273,PAYLOAD,2024-06-07 15:14:28,15.08829433,0.0001371,53.2177,252.4394,94.0977,266.0172,0.00013436,1.85e-05,0.0,0 STARLINK-3273,1 50191U 21125AM  24159.63504811  .00001850  00000-0  13436-3 0  9990,2 50191  53.2177 252.4394 0001371  94.0977 266.0172 15.08829433136748,6917.913,95.438,540.726,538.829,0.0
50191.0,STARLINK-3273,PAYLOAD,2024-06-08 05:32:55,15.0884623,0.0001296,53.2175,249.7622,86.2375,273.8766,9.9953e-06,-1.29e-06,0.0,0 STARLINK-3273,1 50191U 21125AM  24160.23120292 -.00000129  00000-0  99953-5 0  9994,2 50191  53.2175 249.7622 0001296  86.2375 273.8766 15.08846230136839,6917.861,95.437,540.623,538.83,0.0
50191.0,STARLINK-3273,PAYLOAD,2024-06-08 11:54:27,15.08848915,0.0001414,53.2168,248.5739,84.6109,275.5044,5.1206e-05,5.27e-06,0.0,0 STARLINK-3273,1 50191U 21125AM  24160.49615672  .00000527  00000-0  51206-4 0  9992,2 50191  53.2168 248.5739 0001414  84.6109 275.5044 15.08848915139952,6917.853,95.437,540.696,538.74,0.0
50191.0,STARLINK-3273,PAYLOAD,2024-06-08 23:02:08,15.08865098,0.0001717,53.2183,246.4922,69.3985,290.7191,0.00022729,3.334e-05,0.0,0 STARLINK-3273,1 50191U 21125AM  24160.95982569  .00003334  00000-0  22729-3 0  9991,2 50191  53.2183 246.4922 0001717  69.3985 290.7191 15.08865098136947,6917.804,95.436,540.856,538.481,0.0
50191.0,STARLINK-3273,PAYLOAD,2024-06-09 11:45:15,15.0882788,0.0001617,53.2168,244.1137,79.4347,280.6827,-2.4955e-05,-6.85e-06,0.0,0 STARLINK-3273,1 50191U 21125AM  24161.48976686 -.00000685  00000-0 -24955-4 0  9995,2 50191  53.2168 244.1137 0001617  79.4347 280.6827 15.08827880137027,6917.917,95.438,540.901,538.664,0.0
50191.0,STARLINK-3273,PAYLOAD,2024-06-09 22:52:57,15.08840646,0.0001772,53.2179,242.032,80.1256,279.9936,0.0001151,1.544e-05,0.0,0 STARLINK-3273,1 50191U 21125AM  24161.95344151  .00001544  00000-0  11510-3 0  9998,2 50191  53.2179 242.0320 0001772  80.1256 279.9936 15.08840646140177,6917.878,95.438,540.969,538.518,0.0
50191.0,STARLINK-3273,PAYLOAD,2024-06-10 05:14:29,15.08838012,0.0001518,53.2171,240.8398,98.8146,261.3018,-3.8729e-05,-9.04e-06,0.0,0 STARLINK-3273,1 50191U 21125AM  24162.21840271 -.00000904  00000-0 -38729-4 0  9995,2 50191  53.2171 240.8398 0001518  98.8146 261.3018 15.08838012137134,6917.886,95.438,540.802,538.701,0.0
50191.0,STARLINK-3273,PAYLOAD,2024-06-10 11:36:02,15.0884283,0.0001576,53.2172,239.6518,85.3696,274.7477,0.00010062,1.314e-05,0.0,0 STARLINK-3273,1 50191U 21125AM  24162.48336250  .00001314  00000-0  10062-3 0  9994,2 50191  53.2172 239.6518 0001576  85.3696 274.7477 15.08842830140257,6917.872,95.437,540.827,538.646,0.0
50191.0,STARLINK-3273,PAYLOAD,2024-06-11 11:26:49,15.08844354,0.0001528,53.2165,235.1926,84.1836,275.9331,0.00030022,4.494e-05,0.0,0 STARLINK-3273,1 50191U 21125AM  24163.47696472  .00004494  00000-0  30022-3 0  9999,2 50191  53.2165 235.1926 0001528  84.1836 275.9331 15.08844354140405,6917.867,95.437,540.789,538.675,0.0
50191.0,STARLINK-3273,PAYLOAD,2024-06-12 11:17:37,15.08835609,0.000153,53.2167,230.7307,89.3994,270.7173,5.783e-05,6.32e-06,0.0,0 STARLINK-3273,1 50191U 21125AM  24164.47056856  .00000632  00000-0  57830-4 0  9993,2 50191  53.2167 230.7307 0001530  89.3994 270.7173 15.08835609137479,6917.894,95.438,540.817,538.7,0.0
50191.0,STARLINK-3273,PAYLOAD,2024-06-13 11:08:23,15.08842832,0.0001438,53.2165,226.2741,95.1218,264.9938,0.00012463,1.696e-05,0.0,0 STARLINK-3273,1 50191U 21125AM  24165.46416514  .00001696  00000-0  12463-3 0  9997,2 50191  53.2165 226.2741 0001438  95.1218 264.9938 15.08842832140700,6917.872,95.437,540.732,538.742,0.0
50191.0,STARLINK-3273,PAYLOAD,2024-06-14 14:09:57,15.08835071,0.0001231,53.2163,221.2175,92.7162,267.3971,0.00011465,1.537e-05,0.0,0 STARLINK-3273,1 50191U 21125AM  24166.59025154  .00001537  00000-0  11465-3 0  9993,2 50191  53.2163 221.2175 0001231  92.7162 267.3971 15.08835071140875,6917.895,95.438,540.612,538.909,0.0
50191.0,STARLINK-3273,PAYLOAD,2024-06-14 22:06:53,15.08840407,0.0001235,53.2163,219.7308,93.5236,266.5898,0.00012219,1.657e-05,0.0,0 STARLINK-3273,1 50191U 21125AM  24166.92144838  .00001657  00000-0  12219-3 0  9992,2 50191  53.2163 219.7308 0001235  93.5236 266.5898 15.08840407140924,6917.879,95.438,540.599,538.89,0.0
50191.0,STARLINK-3273,PAYLOAD,2024-06-15 14:00:43,15.08848133,0.0001227,53.2162,216.757,94.2082,265.905,8.4763e-05,1.062e-05,0.0,0 STARLINK-3273,1 50191U 21125AM  24167.58384255  .00001062  00000-0  84763-4 0  9998,2 50191  53.2162 216.7570 0001227  94.2082 265.9050 15.08848133141028,6917.856,95.437,540.569,538.872,0.0
50191.0,STARLINK-3273,PAYLOAD,2024-06-15 21:57:38,15.08857939,0.0001216,53.2162,215.2696,92.3432,267.7699,0.00010073,1.316e-05,0.0,0 STARLINK-3273,1 50191U 21125AM  24167.91503345  .00001316  00000-0  10073-3 0  9992,2 50191  53.2162 215.2696 0001216  92.3432 267.7699 15.08857939141075,6917.826,95.436,540.532,538.849,0.0
50191.0,STARLINK-3273,PAYLOAD,2024-06-16 13:51:31,15.08841289,0.0001253,53.2161,212.2961,93.2841,266.8294,0.00014065,1.951e-05,0.0,0 STARLINK-3273,1 50191U 21125AM  24168.57744574  .00001951  00000-0  14065-3 0  9996,2 50191  53.2161 212.2961 0001253  93.2841 266.8294 15.08841289141174,6917.876,95.437,540.608,538.875,0.0
50191.0,STARLINK-3273,PAYLOAD,2024-06-16 21:48:27,15.08841304,0.0001272,53.2161,210.8093,93.2208,266.893,6.9317e-05,8.16e-06,0.0,0 STARLINK-3273,1 50191U 21125AM  24168.90864679  .00000816  00000-0  69317-4 0  9992,2 50191  53.2161 210.8093 0001272  93.2208 266.8930 15.08841304141223,6917.876,95.437,540.621,538.861,0.0
50191.0,STARLINK-3273,PAYLOAD,2024-06-17 21:39:14,15.08842985,0.0001298,53.216,206.3485,91.8149,268.2992,-5.8297e-06,-3.81e-06,0.0,0 STARLINK-3273,1 50191U 21125AM  24169.90224606 -.00000381  00000-0 -58297-5 0  9998,2 50191  53.2160 206.3485 0001298  91.8149 268.2992 15.08842985141379,6917.871,95.437,540.634,538.838,0.0
50191.0,STARLINK-3273,PAYLOAD,2024-06-18 11:57:42,15.08841244,0.000132,53.2159,203.6721,92.5465,267.5678,8.2138e-05,1.02e-05,0.0,0 STARLINK-3273,1 50191U 21125AM  24170.49840405  .00001020  00000-0  82138-4 0  9994,2 50191  53.2159 203.6721 0001320  92.5465 267.5678 15.08841244141465,6917.877,95.437,540.655,538.828,0.0
50191.0,STARLINK-3273,PAYLOAD,2024-06-19 05:26:57,15.08834228,0.0001311,53.2159,200.4011,92.5611,267.5531,6.3125e-05,7.17e-06,0.0,0 STARLINK-3273,1 50191U 21125AM  24171.22704869  .00000717  00000-0  63125-4 0  9996,2 50191  53.2159 200.4011 0001311  92.5611 267.5531 15.08834228138496,6917.898,95.438,540.67,538.856,0.0
50191.0,STARLINK-3273,PAYLOAD,2024-06-19 08:37:43,15.08834667,0.0001298,53.2159,199.8062,93.6234,266.4906,6.3503e-05,7.23e-06,0.0,0 STARLINK-3273,1 50191U 21125AM  24171.35952876  .00000723  00000-0  63503-4 0  9990,2 50191  53.2159 199.8062 0001298  93.6234 266.4906 15.08834667141596,6917.897,95.438,540.66,538.864,0.0
50191.0,STARLINK-3273,PAYLOAD,2024-06-20 11:39:16,15.08836445,0.0001245,53.216,194.7516,90.4552,269.6583,-2.4786e-05,-6.82e-06,0.0,0 STARLINK-3273,1 50191U 21125AM  24172.48561229 -.00000682  00000-0 -24786-4 0  9999,2 50191  53.2160 194.7516 0001245  90.4552 269.6583 15.08836445141767,6917.891,95.438,540.618,538.895,0.0
50191.0,STARLINK-3273,PAYLOAD,2024-06-21 00:22:21,15.08835467,0.0001213,53.216,192.3729,90.5965,269.5166,3.3677e-05,2.48e-06,0.0,0 STARLINK-3273,1 50191U 21125AM  24173.01553134  .00000248  00000-0  33677-4 0  9990,2 50191  53.2160 192.3729 0001213  90.5965 269.5166 15.08835467138766,6917.894,95.438,540.598,538.92,0.0
50191.0,STARLINK-3273,PAYLOAD,2024-06-21 09:54:40,15.08835953,0.0001221,53.216,190.5886,90.0987,270.0145,3.4379e-05,2.59e-06,0.0,0 STARLINK-3273,1 50191U 21125AM  24173.41297223  .00000259  00000-0  34379-4 0  9990,2 50191  53.2160 190.5886 0001221  90.0987 270.0145 15.08835953141902,6917.893,95.438,540.602,538.913,0.0
50191.0,STARLINK-3273,PAYLOAD,2024-06-22 04:59:18,15.08833679,0.0001269,53.2163,187.0199,86.6385,273.4752,4.5501e-05,4.36e-06,0.0,0 STARLINK-3273,1 50191U 21125AM  24174.20785584  .00000436  00000-0  45501-4 0  9996,2 50191  53.2163 187.0199 0001269  86.6385 273.4752 15.08833679138942,6917.9,95.438,540.643,538.887,0.0
50191.0,STARLINK-3273,PAYLOAD,2024-06-22 06:34:41,15.08833679,0.0001269,53.2163,186.7226,86.5149,273.5988,4.4595e-05,4.22e-06,0.0,0 STARLINK-3273,1 50191U 21125AM  24174.27409614  .00000422  00000-0  44595-4 0  9997,2 50191  53.2163 186.7226 0001269  86.5149 273.5988 15.08833679142033,6917.9,95.438,540.643,538.887,0.0
